LEMUR-2-ROUNDTRIPPER    
1 62711U 25009DG  26178.47352022  .00008440  00000+0  61556-3 0  9993
2 62711  97.7248 261.1388 0005479 106.7091 253.4736 15.03952736 79179
LEMUR-2-MYNAMEISJEFF    
1 62712U 25009DH  26178.20578379  .00008421  00000+0  61444-3 0  9995
2 62712  97.7291 261.2583 0003989 132.7796 227.3766 15.03945393 79131
LEMUR-2-LEIA-PHILIP     
1 63246U 25052AN  26178.49474522  .00001345  00000+0  12088-3 0  9990
2 63246  97.6819  70.2718 0003795 174.9771 185.1490 14.97338705 70213
LEMUR-2-LIA-MARTIN      
1 63248U 25052AQ  26178.42950591  .00004931  00000+0  42377-3 0  9998
2 63248  97.6875  70.6977 0003929 138.0718 222.0806 14.97878228 70210
LEMUR-2-DELOITTE-1      
1 63259U 25052BB  26178.27361220  .00003420  00000+0  29700-3 0  9995
2 63259  97.6924  70.8753 0003103  76.0289 284.1278 14.97673694 70200
LEMUR-2-EMERSONROSE     
1 63261U 25052BD  26178.43913153  .00004109  00000+0  34258-3 0  9993
2 63261  97.6879  71.6143 0002132  78.4960 281.6502 14.99149739 70276
LEMUR-2-MARACHE-FRAN    
1 63262U 25052BE  26178.20730657  .00004980  00000+0  40315-3 0  9993
2 63262  97.6922  71.7246 0004516 341.0693  19.0362 15.00186912 70264
LEMUR-2-THEFALCONER     
1 63264U 25052BG  26178.43513841  .00003908  00000+0  34064-3 0  9997
2 63264  97.6851  70.6418 0001468  18.1325 341.9949 14.97448884 70221
LEMUR-2-UNTITLED-SC     
1 63351U 25061A   26178.46854351  .00003718  00000+0  21050-3 0  9991
2 63351  97.5636 153.7556 0017396 225.6897 134.2909 15.13541634 69144
LEMUR-2-ESPERANZA       
1 63352U 25061B   26178.44505535  .00003242  00000+0  18359-3 0  9997
2 63352  97.5639 153.8280 0016988 224.9057 135.0801 15.13632600 69143
LEMUR-2-KREMPEL-BRO2    
1 63353U 25061C   26178.46907066  .00003705  00000+0  20660-3 0  9997
2 63353  97.5690 154.3985 0018098 217.0617 142.9365 15.14071576 69162
LEMUR-2-THERMORAPTOR    
1 63354U 25061D   26178.45059442  .00003473  00000+0  19351-3 0  9990
2 63354  97.5695 154.4577 0017837 215.8203 144.1833 15.14152601 69166
LEMUR-2-NEUROSPICY      
1 63355U 25061E   26178.48756573  .00004015  00000+0  22255-3 0  9993
2 63355  97.5620 154.1124 0015623 219.1681 140.8421 15.14267933 69170
LEMUR-2-TILLINFINITY    
1 63356U 25061F   26178.45280095  .00003539  00000+0  19331-3 0  9993
2 63356  97.5605 154.3758 0017145 206.6753 153.3598 15.14853870 69198
LEMUR-2-KREMPEL-BRO1    
1 63357U 25061G   26178.49365244  .00003862  00000+0  21172-3 0  9993
2 63357  97.5607 154.3296 0017778 208.2487 151.7782 15.14659121 69192
LEMUR-2-LANGER2SPACE    
1 63358U 25061H   26178.45613994  .00003589  00000+0  19886-3 0  9993
2 63358  97.5612 154.1023 0015518 217.2366 142.7791 15.14355824 69172
LEMUR-2-BALTO           
1 63395U 25052BH  26178.25873071  .00006311  00000+0  50926-3 0  9992
2 63395  97.6925  71.7509 0006550  30.9597 329.2012 15.00195388 70279
LEMUR-2-KRISH           
1 64561U 25135AK  26178.30627522  .00005075  00000+0  45414-3 0  9996
2 64561  97.7747 293.1131 0001090 103.3926 256.7417 14.96292262 55431
LEMUR-2-HUBBLE-4        
1 64565U 25135AP  26178.32161137  .00001802  00000+0  17624-3 0  9993
2 64565  97.7715 292.1045 0001258 226.1385 133.9731 14.93570405 55386
LEMUR-2-SEJONG-2        
1 64586U 25135BL  26178.46669238  .00005475  00000+0  48349-3 0  9994
2 64586  97.7697 293.4168 0002779 298.5521  61.5420 14.96778209 55489
LEMUR-2-HUBBLE-5        
1 64840U 25135BT  26178.26979266  .00001974  00000+0  18975-3 0  9992
2 64840  97.7726 292.7043 0004272 315.2730  44.8145 14.94165966 55417
LEMUR-2-KARENDARRELL    
1 64841U 25135BU  26178.32335560  .00008735  00000+0  70136-3 0  9992
2 64841  97.7686 294.5142 0010574 164.1236 196.0321 15.00255938 55533
LEMUR-2-LUCILLE-ROSE    
1 65403U 25135BV  26178.29682836  .00007467  00000+0  59982-3 0  9991
2 65403  97.7747 294.5180 0012405 246.2725 113.7197 15.00275679 50152
LEMUR-2-AFFIE-WAUWIE    
1 66295U 25248C   26178.38993332  .00025356  00000+0  93036-3 0  9997
2 66295  45.3939  59.6977 0007745 153.9147 206.2134 15.27570489 36150
LEMUR-2-DEANANDMAEVE    
1 66678U 25276N   26178.45413325  .00006765  00000+0  31847-3 0  9995
2 66678  97.4216 251.7594 0004734 336.6035  23.4984 15.19854454 31977
LEMUR-2-STAS-GORBUK     
1 66686U 25276W   26178.20765340  .00006309  00000+0  30043-3 0  9995
2 66686  97.4250 251.5712 0004046 337.8562  22.2497 15.19482151 31931
LEMUR-2-TEODOR          
1 66768U 25276DG  26178.50935418  .00005672  00000+0  25768-3 0  9994
2 66768  97.4155 252.1173 0002368 106.3322 253.8174 15.21157639 32019
LEMUR-2-LAILA           
1 66776U 25276DQ  26178.48176538  .00006758  00000+0  30441-3 0  9990
2 66776  97.4178 252.2173 0002689 120.9394 239.2106 15.21382042 32012
LEMUR-2-CELIJO-SB-PK    
1 66781U 25276DW  26178.44286647  .00006817  00000+0  55080-3 0  9997
2 66781  97.5232 248.8833 0008099 107.8984 252.3123 15.00096447 24164
LEMUR-2-FINNIAN         
1 66782U 25276DX  26178.01702184  .00004265  00000+0  34317-3 0  9995
2 66782  97.5321 248.6986 0008583  60.9058 299.3024 15.00465687 21478
