OBJECT_NAME,OBJECT_ID,EPOCH,MEAN_MOTION,ECCENTRICITY,INCLINATION,RA_OF_ASC_NODE,ARG_OF_PERICENTER,MEAN_ANOMALY,EPHEMERIS_TYPE,CLASSIFICATION_TYPE,NORAD_CAT_ID,ELEMENT_SET_NO,REV_AT_EPOCH,BSTAR,MEAN_MOTION_DOT,MEAN_MOTION_DDOT
LEMUR-2-ROUNDTRIPPER,2025-009DG,2026-06-27T11:21:52.147008,15.03952736,.0005479,97.7248,261.1388,106.7091,253.4736,0,U,62711,999,7917,.61556E-3,.844E-4,0
LEMUR-2-MYNAMEISJEFF,2025-009DH,2026-06-27T04:56:19.719456,15.03945393,.00039892,97.7291,261.2583,132.7796,227.3766,0,U,62712,999,7913,.61444106E-3,.8421E-4,0
LEMUR-2-LEIA-PHILIP,2025-052AN,2026-06-27T11:52:25.987008,14.97338705,.0003795,97.6819,70.2718,174.9771,185.1490,0,U,63246,999,7021,.12088E-3,.1345E-4,0
LEMUR-2-LIA-MARTIN,2025-052AQ,2026-06-27T10:18:29.310624,14.97878228,.0003929,97.6875,70.6977,138.0718,222.0806,0,U,63248,999,7021,.42377E-3,.4931E-4,0
LEMUR-2-DELOITTE-1,2025-052BB,2026-06-27T06:34:00.094080,14.97673694,.0003103,97.6924,70.8753,76.0289,284.1278,0,U,63259,999,7020,.297E-3,.342E-4,0
LEMUR-2-EMERSONROSE,2025-052BD,2026-06-27T10:32:20.964192,14.99149739,.0002132,97.6879,71.6143,78.4960,281.6502,0,U,63261,999,7027,.34258E-3,.4109E-4,0
LEMUR-2-MARACHE-FRAN,2025-052BE,2026-06-27T04:58:31.287648,15.00186912,.00045167,97.6922,71.7246,341.0693,19.0362,0,U,63262,999,7026,.4031542E-3,.498E-4,0
LEMUR-2-THEFALCONER,2025-052BG,2026-06-27T10:26:35.958624,14.97448884,.0001468,97.6851,70.6418,18.1325,341.9949,0,U,63264,999,7022,.34064E-3,.3908E-4,0
LEMUR-2-UNTITLED-SC,2025-061A,2026-06-27T11:14:42.159264,15.13541634,.0017396,97.5636,153.7556,225.6897,134.2909,0,U,63351,999,6914,.2105E-3,.3718E-4,0
LEMUR-2-ESPERANZA,2025-061B,2026-06-27T10:40:52.782240,15.13632600,.0016988,97.5639,153.8280,224.9057,135.0801,0,U,63352,999,6914,.18359E-3,.3242E-4,0
LEMUR-2-KREMPEL-BRO2,2025-061C,2026-06-27T11:15:27.705024,15.14071576,.0018098,97.5690,154.3985,217.0617,142.9365,0,U,63353,999,6916,.2066E-3,.3705E-4,0
LEMUR-2-THERMORAPTOR,2025-061D,2026-06-27T10:48:51.357888,15.14152601,.0017837,97.5695,154.4577,215.8203,144.1833,0,U,63354,999,6916,.19351E-3,.3473E-4,0
LEMUR-2-NEUROSPICY,2025-061E,2026-06-27T11:42:05.679072,15.14267933,.0015623,97.5620,154.1124,219.1681,140.8421,0,U,63355,999,6917,.22255E-3,.4015E-4,0
LEMUR-2-TILLINFINITY,2025-061F,2026-06-27T10:52:02.002080,15.14853870,.0017145,97.5605,154.3758,206.6753,153.3598,0,U,63356,999,6919,.19331E-3,.3539E-4,0
LEMUR-2-KREMPEL-BRO1,2025-061G,2026-06-27T11:50:51.570816,15.14659121,.0017778,97.5607,154.3296,208.2487,151.7782,0,U,63357,999,6919,.21172E-3,.3862E-4,0
LEMUR-2-LANGER2SPACE,2025-061H,2026-06-27T10:56:50.490816,15.14355824,.0015518,97.5612,154.1023,217.2366,142.7791,0,U,63358,999,6917,.19886E-3,.3589E-4,0
LEMUR-2-BALTO,2025-052BH,2026-06-27T06:12:34.333344,15.00195388,.000655,97.6925,71.7509,30.9597,329.2012,0,U,63395,999,7027,.50926E-3,.6311E-4,0
LEMUR-2-KRISH,2025-135AK,2026-06-27T07:21:02.179008,14.96292262,.000109,97.7747,293.1131,103.3926,256.7417,0,U,64561,999,5543,.45414E-3,.5075E-4,0
LEMUR-2-HUBBLE-4,2025-135AP,2026-06-27T07:43:07.222368,14.93570405,.0001258,97.7715,292.1045,226.1385,133.9731,0,U,64565,999,5538,.17624E-3,.1802E-4,0
LEMUR-2-SEJONG-2,2025-135BL,2026-06-27T11:12:02.221632,14.96778209,.0002779,97.7697,293.4168,298.5521,61.5420,0,U,64586,999,5548,.48349E-3,.5475E-4,0
LEMUR-2-HUBBLE-5,2025-135BT,2026-06-27T06:28:30.085824,14.94165966,.0004272,97.7726,292.7043,315.2730,44.8145,0,U,64840,999,5541,.18975E-3,.1974E-4,0
LEMUR-2-KARENDARRELL,2025-135BU,2026-06-27T07:45:37.923840,15.00255938,.0010574,97.7686,294.5142,164.1236,196.0321,0,U,64841,999,5553,.70136E-3,.8735E-4,0
LEMUR-2-LUCILLE-ROSE,2025-135BV,2026-06-27T07:07:25.970304,15.00275679,.0012405,97.7747,294.5180,246.2725,113.7197,0,U,65403,999,5015,.59982E-3,.7467E-4,0
LEMUR-2-AFFIE-WAUWIE,2025-248C,2026-06-27T09:21:30.238848,15.27570489,.0007745,45.3939,59.6977,153.9147,206.2134,0,U,66295,999,3615,.93036E-3,.25356E-3,0
LEMUR-2-DEANANDMAEVE,2025-276N,2026-06-27T10:53:57.112800,15.19854454,.0004734,97.4216,251.7594,336.6035,23.4984,0,U,66678,999,3197,.31847E-3,.6765E-4,0
LEMUR-2-STAS-GORBUK,2025-276W,2026-06-27T04:59:01.253760,15.19482151,.00040468,97.4250,251.5712,337.8562,22.2497,0,U,66686,999,3193,.30043233E-3,.6309E-4,0
LEMUR-2-TEODOR,2025-276DG,2026-06-27T12:13:28.201152,15.21157639,.0002368,97.4155,252.1173,106.3322,253.8174,0,U,66768,999,3201,.25768E-3,.5672E-4,0
LEMUR-2-LAILA,2025-276DQ,2026-06-27T11:33:44.528832,15.21382042,.0002689,97.4178,252.2173,120.9394,239.2106,0,U,66776,999,3201,.30441E-3,.6758E-4,0
LEMUR-2-CELIJO-SB-PK,2025-276DW,2026-06-27T10:37:43.663008,15.00096447,.0008099,97.5232,248.8833,107.8984,252.3123,0,U,66781,999,2416,.5508E-3,.6817E-4,0
LEMUR-2-FINNIAN,2025-276DX,2026-06-27T00:24:30.686976,15.00465687,.00085837,97.5321,248.6986,60.9058,299.3024,0,U,66782,999,2147,.34316598E-3,.4265E-4,0
